GSAT0101 (GALILEO-PFM)  
1 37846U 11060A   25014.89371631 -.00000098  00000+0  00000+0 0  9992
2 37846  57.1176 355.8054 0003519 330.6187  29.3485  1.70475786 82289
GSAT0102 (GALILEO-FM2)  
1 37847U 11060B   25015.11248815 -.00000098  00000+0  00000+0 0  9996
2 37847  57.1183 355.7996 0005327 318.3669 221.1658  1.70475294 82298
GSAT0103 (GALILEO-FM3)  
1 38857U 12055A   25015.51988387 -.00000021  00000+0  00000+0 0  9998
2 38857  55.5082 115.7684 0003816 262.8458  97.1105  1.70473446 76184
GSAT0201 (GALILEO 5)    
1 40128U 14050A   25015.98884491 -.00000073  00000+0  00000+0 0  9998
2 40128  49.4345 294.4890 1617762 159.4630 207.9075  1.85519670 68725
GSAT0202 (GALILEO 6)    
1 40129U 14050B   25016.24632496 -.00000072  00000+0  00000+0 0  9994
2 40129  49.4501 293.5583 1617320 160.2580 206.8435  1.85520462 70893
GSAT0203 (GALILEO 7)    
1 40544U 15017A   25015.25905954 -.00000099  00000+0  00000+0 0  9990
2 40544  56.9122 355.7006 0005972 277.3798  82.5393  1.70475859 60378
GSAT0204 (GALILEO 8)    
1 40545U 15017B   25014.92721922 -.00000099  00000+0  00000+0 0  9995
2 40545  56.9185 355.7259 0005514 268.6324  91.2915  1.70475545 23411
GSAT0205 (GALILEO 9)    
1 40889U 15045A   25015.86911334  .00000046  00000+0  00000+0 0  9990
2 40889  55.1256 235.8940 0006385  43.9588 316.1626  1.70473322 58192
GSAT0206 (GALILEO 10)   
1 40890U 15045B   25016.08972903  .00000045  00000+0  00000+0 0  9995
2 40890  55.1244 235.8831 0004249  44.3353 315.7680  1.70473347 58228
GSAT0209 (GALILEO 12)   
1 41174U 15079A   25012.15243448 -.00000034  00000+0  00000+0 0  9996
2 41174  55.5260 115.5721 0002733 320.1334  39.8251  1.70474662 55897
GSAT0208 (GALILEO 11)   
1 41175U 15079B   25011.78575138 -.00000035  00000+0  00000+0 0  9990
2 41175  55.5243 115.5799 0002097 320.5446  39.4175  1.70474473 56303
GSAT0211 (GALILEO 14)   
1 41549U 16030A   25015.42890896  .00000047  00000+0  00000+0 0  9991
2 41549  55.2739 235.9356 0004261  23.2560 336.8369  1.70473329 53844
GSAT0210 (GALILEO 13)   
1 41550U 16030B   25013.92699580  .00000055  00000+0  00000+0 0  9992
2 41550  55.2741 235.9753 0000569 214.7376 145.3409  1.70473700 53817
GSAT0207 (GALILEO 15)   
1 41859U 16069A   25015.96545170 -.00000020  00000+0  00000+0 0  9990
2 41859  55.1941 115.4168 0003232 296.6845  63.2857  1.70474668 50582
GSAT0212 (GALILEO 16)   
1 41860U 16069B   25012.29998307 -.00000035  00000+0  00000+0 0  9995
2 41860  55.1902 115.5146 0001635 348.8259  11.1495  1.70474851 50777
GSAT0213 (GALILEO 17)   
1 41861U 16069C   25012.66820089 -.00000034  00000+0  00000+0 0  9997
2 41861  55.1916 115.5113 0003590 272.5998  87.3399  1.70474925 50648
GSAT0214 (GALILEO 18)   
1 41862U 16069D   25016.33319024 -.00000018  00000+0  00000+0 0  9990
2 41862  55.1925 115.4029 0002883 273.1770  86.7956  1.70474924 50835
GSAT0215 (GALILEO 19)   
1 43055U 17079A   25015.65018522  .00000047  00000+0  00000+0 0  9992
2 43055  55.2508 235.7484 0001183  12.0586 348.0162  1.70474031 44168
GSAT0216 (GALILEO 20)   
1 43056U 17079B   25013.59540225  .00000057  00000+0  00000+0 0  9995
2 43056  55.2522 235.8050 0002166 327.9859  32.0845  1.70474211 44111
GSAT0217 (GALILEO 21)   
1 43057U 17079C   25014.98911943  .00000049  00000+0  00000+0 0  9990
2 43057  55.2494 235.7650 0002760 354.6945   5.3786  1.70474110 44157
GSAT0218 (GALILEO 22)   
1 43058U 17079D   25015.79573619  .00000046  00000+0  00000+0 0  9992
2 43058  55.2494 235.7403 0002164 314.8446  45.2088  1.70474175 44199
GSAT0221 (GALILEO 25)   
1 43564U 18060A   25015.11021596 -.00000098  00000+0  00000+0 0  9991
2 43564  57.2927 355.7584 0006435 289.0087  70.9083  1.70475646 40332
GSAT0222 (GALILEO 26)   
1 43565U 18060B   25014.15586676 -.00000098  00000+0  00000+0 0  9990
2 43565  57.2962 355.7864 0005491 267.7405  92.1842  1.70475351 40366
GSAT0219 (GALILEO 23)   
1 43566U 18060C   25016.13720103 -.00000097  00000+0  00000+0 0  9995
2 43566  57.2954 355.7349 0005716 295.7591  64.1689  1.70475640 40373
GSAT0220 (GALILEO 24)   
1 43567U 18060D   25015.18480046 -.00000098  00000+0  00000+0 0  9990
2 43567  57.2952 355.7602 0005932 290.0362  69.8866  1.70475675 40342
GSAT0223 (GALILEO 27)   
1 49809U 21116A   25016.21267094 -.00000097  00000+0  00000+0 0  9991
2 49809  57.2851 355.6254 0003703 260.8158 100.4987  1.70475799 19371
GSAT0224 (GALILEO 28)   
1 49810U 21116B   25013.97948358 -.00000098  00000+0  00000+0 0  9993
2 49810  57.2860 355.6843 0003224 267.4256 275.8690  1.70475688 19350
GSAT0225 (GALILEO 29)   
1 59598U 24079A   25012.53358380 -.00000035  00000+0  00000+0 0  9990
2 59598  54.8106 115.6487 0002679 195.7526 171.4641  1.70475017  4441
GSAT0227 (GALILEO 30)   
1 59600U 24079C   25015.05146733 -.00000024  00000+0  00000+0 0  9999
2 59600  54.8056 115.5786 0002212 133.9404 226.0739  1.70475040  4533
GSAT0232 (GALILEO 32)   
1 61182U 24167A   25014.40060060  .00000053  00000+0  00000+0 0  9992
2 61182  55.3616 235.5477 0001681 181.4303 334.5991  1.70473573  2031
GSAT0226 (GALILEO 31)   
1 61183U 24167B   25015.39894296  .00000048  00000+0  00000+0 0  9992
2 61183  55.3591 235.5258 0001681 101.2033  60.0683  1.70473748  2023
